ONEWEB-0055             
1 45443U 20020V   20111.58334491 -.00084250  00000-0 -26756-2 0  9995
2 45443  87.4010 128.3301 0026383 179.4647  22.3165 15.32692819  4548
ONEWEB-0093             
1 45444U 20020W   20111.50001157  .00042215  00000-0  12338-2 0  9992
2 45444  87.3983 128.3710 0026950 180.2305 269.0376 15.34749800  4530
ONEWEB-0029             
1 45445U 20020X   20111.58334491 -.00112976  00000-0 -39509-2 0  9994
2 45445  87.4073 128.3424 0027270 180.5333 330.8196 15.29687320  4544
ONEWEB-0068             
1 45446U 20020Y   20111.58334491 -.00038222  00000-0 -13650-2 0  9995
2 45446  87.4104 128.3521 0027883 182.3204 306.0155 15.28705009  4549
ONEWEB-0046             
1 45447U 20020Z   20111.58334491 -.00038308  00000-0 -14214-2 0  9998
2 45447  87.4124 128.3459 0027830 183.4500 276.9071 15.27455135  4548
ONEWEB-0063             
1 45448U 20020AA  20111.50001157 -.00116205  00000-0 -39476-2 0  9991
2 45448  87.4064 128.3875 0027376 185.6004 193.5292 15.30633785  4533
ONEWEB-0019             
1 45449U 20020AB  20111.50001157  .00041557  00000-0  25105-2 0  9991
2 45449  87.4549 128.5186 0027504 186.6692 305.4773 15.10192651  4512
ONEWEB-0094             
1 45450U 20020AC  20111.58334491 -.00039801  00000-0 -15418-2 0  9998
2 45450  87.4120 128.3678 0026946 187.8008 194.8480 15.26062421  4542
ONEWEB-0087             
1 45451U 20020AD  20111.50001157  .00031288  00000-0  18290-2 0  9991
2 45451  87.4333 128.4735 0026465 189.4267  74.6429 15.11446534  4515
ONEWEB-0082             
1 45452U 20020AE  20111.41667824  .00069088  00000-0  27299-2 0  9999
2 45452  87.4081 128.4338 0026490 190.5086 299.6414 15.24894766  4516
ONEWEB-0050             
1 45453U 20020AF  20111.16667824 -.00055199  00000-0 -18317-2 0  9993
2 45453  87.4113 128.5075 0025515 190.6903  81.4675 15.31204330  1779
ONEWEB-0034             
1 45454U 20020AG  20111.58334491 -.00022571  00000-0 -92494-3 0  9998
2 45454  87.4095 128.3804 0025020 188.2212 102.2628 15.24185766  4534
ONEWEB-0060             
1 45455U 20020AH  20111.41667824  .00036695  00000-0  29988-2 0  9997
2 45455  87.4582 128.6232 0024095 188.6721 167.6862 14.98989865  4496
ONEWEB-0086             
1 45456U 20020AJ  20111.50001157  .00040390  00000-0  31119-2 0  9995
2 45456  87.4486 128.5704 0023928 187.3245 287.8080 15.01232210  4503
ONEWEB-0088             
1 45457U 20020AK  20111.50001157 -.00067978  00000-0 -59335-2 0  9999
2 45457  87.4383 128.5854 0022863 187.4834 173.5565 14.97073966  4502
